{
  "type": "FeatureCollection",
  "features": [
    {
      "type": "Feature",
      "properties": {
        "norad_id": 44333,
        "name": "AT&T T-16",
        "group": "intelsat",
        "lat": 0.011364447350642787,
        "lon": 133.36804084585813,
        "alt_km": 35785.47249212965,
        "timestamp": "2025-12-02T10:50:46.941403+00:00",
        "meta_object_name": "AT&T T-16",
        "meta_object_id": "2019-034A",
        "meta_epoch": "2025-12-02T03:01:54.785856",
        "meta_mean_motion": 1.00267153,
        "meta_eccentricity": 4.91e-05,
        "meta_inclination": 0.0251,
        "meta_ra_of_asc_node": 59.9841,
        "meta_arg_of_pericenter": 94.9911,
        "meta_mean_anomaly": 220.8904,
        "meta_ephemeris_type": 0,
        "meta_classification_type": "U",
        "meta_norad_cat_id": 44333,
        "meta_element_set_no": 999,
        "meta_rev_at_epoch": 2365,
        "meta_bstar": 0,
        "meta_mean_motion_dot": -9.4e-07,
        "meta_mean_motion_ddot": 0,
        "tle_line1": "1 44333U 19034A   25336.12632854 -.00000094  00000+0  00000+0 0  9996",
        "tle_line2": "2 44333   0.0251  59.9841 0000491  94.9911 220.8904  1.00267153 23656"
      },
      "geometry": {
        "type": "Point",
        "coordinates": [
          133.36804084585813,
          0.011364447350642787
        ]
      }
    },
    {
      "type": "Feature",
      "properties": {
        "norad_id": 44476,
        "name": "INTELSAT 39 (IS-39)",
        "group": "intelsat",
        "lat": -0.008925865286996851,
        "lon": -63.80862786852562,
        "alt_km": 35786.07228609678,
        "timestamp": "2025-12-02T10:50:46.941414+00:00",
        "meta_object_name": "INTELSAT 39 (IS-39)",
        "meta_object_id": "2019-049B",
        "meta_epoch": "2025-12-01T21:58:38.459424",
        "meta_mean_motion": 1.00276327,
        "meta_eccentricity": 5.57e-05,
        "meta_inclination": 0.0163,
        "meta_ra_of_asc_node": 308.3282,
        "meta_arg_of_pericenter": 224.0067,
        "meta_mean_anomaly": 290.3068,
        "meta_ephemeris_type": 0,
        "meta_classification_type": "U",
        "meta_norad_cat_id": 44476,
        "meta_element_set_no": 999,
        "meta_rev_at_epoch": 2315,
        "meta_bstar": 0,
        "meta_mean_motion_dot": 5.4e-07,
        "meta_mean_motion_ddot": 0,
        "tle_line1": "1 44476U 19049B   25335.91572291  .00000054  00000+0  00000+0 0  9999",
        "tle_line2": "2 44476   0.0163 308.3282 0000557 224.0067 290.3068  1.00276327 23158"
      },
      "geometry": {
        "type": "Point",
        "coordinates": [
          -63.80862786852562,
          -0.008925865286996851
        ]
      }
    },
    {
      "type": "Feature",
      "properties": {
        "norad_id": 46114,
        "name": "GALAXY 30 (G-30)",
        "group": "intelsat",
        "lat": 0.0067676566130955036,
        "lon": 109.21090425959075,
        "alt_km": 35793.61735633036,
        "timestamp": "2025-12-02T10:50:46.941426+00:00",
        "meta_object_name": "GALAXY 30 (G-30)",
        "meta_object_id": "2020-056C",
        "meta_epoch": "2025-12-01T20:42:04.934304",
        "meta_mean_motion": 1.0027242,
        "meta_eccentricity": 0.0002369,
        "meta_inclination": 0.0148,
        "meta_ra_of_asc_node": 292.7027,
        "meta_arg_of_pericenter": 317.0993,
        "meta_mean_anomaly": 6.6971,
        "meta_ephemeris_type": 0,
        "meta_classification_type": "U",
        "meta_norad_cat_id": 46114,
        "meta_element_set_no": 999,
        "meta_rev_at_epoch": 1931,
        "meta_bstar": 0,
        "meta_mean_motion_dot": 5.8e-07,
        "meta_mean_motion_ddot": 0,
        "tle_line1": "1 46114U 20056C   25335.86255711  .00000058  00000+0  00000+0 0  9993",
        "tle_line2": "2 46114   0.0148 292.7027 0002369 317.0993   6.6971  1.00272420 19313"
      },
      "geometry": {
        "type": "Point",
        "coordinates": [
          109.21090425959075,
          0.0067676566130955036
        ]
      }
    },
    {
      "type": "Feature",
      "properties": {
        "norad_id": 54026,
        "name": "GALAXY 33 (G-33)",
        "group": "intelsat",
        "lat": 0.02264099836172881,
        "lon": 101.21794041933589,
        "alt_km": 35792.58541914857,
        "timestamp": "2025-12-02T10:50:46.941438+00:00",
        "meta_object_name": "GALAXY 33 (G-33)",
        "meta_object_id": "2022-128A",
        "meta_epoch": "2025-12-02T02:52:48.158976",
        "meta_mean_motion": 1.00272309,
        "meta_eccentricity": 0.0001926,
        "meta_inclination": 0.0128,
        "meta_ra_of_asc_node": 327.2382,
        "meta_arg_of_pericenter": 278.9194,
        "meta_mean_anomaly": 95.2787,
        "meta_ephemeris_type": 0,
        "meta_classification_type": "U",
        "meta_norad_cat_id": 54026,
        "meta_element_set_no": 999,
        "meta_rev_at_epoch": 1176,
        "meta_bstar": 0,
        "meta_mean_motion_dot": 1e-06,
        "meta_mean_motion_ddot": 0,
        "tle_line1": "1 54026U 22128A   25336.12000184  .00000100  00000+0  00000+0 0  9996",
        "tle_line2": "2 54026   0.0128 327.2382 0001926 278.9194  95.2787  1.00272309 11762"
      },
      "geometry": {
        "type": "Point",
        "coordinates": [
          101.21794041933589,
          0.02264099836172881
        ]
      }
    },
    {
      "type": "Feature",
      "properties": {
        "norad_id": 54027,
        "name": "GALAXY 34 (G-34)",
        "group": "intelsat",
        "lat": 0.0185761170967661,
        "lon": 105.21518068932221,
        "alt_km": 35790.423119893116,
        "timestamp": "2025-12-02T10:50:46.941450+00:00",
        "meta_object_name": "GALAXY 34 (G-34)",
        "meta_object_id": "2022-128B",
        "meta_epoch": "2025-12-01T20:45:55.897056",
        "meta_mean_motion": 1.00272949,
        "meta_eccentricity": 0.0001428,
        "meta_inclination": 0.015,
        "meta_ra_of_asc_node": 316.5626,
        "meta_arg_of_pericenter": 289.8338,
        "meta_mean_anomaly": 7.0638,
        "meta_ephemeris_type": 0,
        "meta_classification_type": "U",
        "meta_norad_cat_id": 54027,
        "meta_element_set_no": 999,
        "meta_rev_at_epoch": 1193,
        "meta_bstar": 0,
        "meta_mean_motion_dot": 8e-07,
        "meta_mean_motion_ddot": 0,
        "tle_line1": "1 54027U 22128B   25335.86523029  .00000080  00000+0  00000+0 0  9992",
        "tle_line2": "2 54027   0.0150 316.5626 0001428 289.8338   7.0638  1.00272949 11933"
      },
      "geometry": {
        "type": "Point",
        "coordinates": [
          105.21518068932221,
          0.0185761170967661
        ]
      }
    },
    {
      "type": "Feature",
      "properties": {
        "norad_id": 54243,
        "name": "GALAXY 31 (G-31)",
        "group": "intelsat",
        "lat": 0.01636515753040616,
        "lon": 113.18892119373339,
        "alt_km": 35793.97681125687,
        "timestamp": "2025-12-02T10:50:46.941461+00:00",
        "meta_object_name": "GALAXY 31 (G-31)",
        "meta_object_id": "2022-153A",
        "meta_epoch": "2025-12-02T02:56:10.337568",
        "meta_mean_motion": 1.00271468,
        "meta_eccentricity": 0.0002078,
        "meta_inclination": 0.0128,
        "meta_ra_of_asc_node": 327.051,
        "meta_arg_of_pericenter": 299.1464,
        "meta_mean_anomaly": 88.0538,
        "meta_ephemeris_type": 0,
        "meta_classification_type": "U",
        "meta_norad_cat_id": 54243,
        "meta_element_set_no": 999,
        "meta_rev_at_epoch": 515,
        "meta_bstar": 0,
        "meta_mean_motion_dot": 0,
        "meta_mean_motion_ddot": 0,
        "tle_line1": "1 54243U 22153A   25336.12234187  .00000000  00000+0  00000+0 0  9996",
        "tle_line2": "2 54243   0.0128 327.0510 0002078 299.1464  88.0538  1.00271468  5153"
      },
      "geometry": {
        "type": "Point",
        "coordinates": [
          113.18892119373339,
          0.01636515753040616
        ]
      }
    },
    {
      "type": "Feature",
      "properties": {
        "norad_id": 54244,
        "name": "GALAXY 32 (G-32)",
        "group": "intelsat",
        "lat": -0.004468331071302783,
        "lon": 143.21967050143118,
        "alt_km": 35796.04933458549,
        "timestamp": "2025-12-02T10:50:46.941472+00:00",
        "meta_object_name": "GALAXY 32 (G-32)",
        "meta_object_id": "2022-153B",
        "meta_epoch": "2025-12-01T21:56:31.606944",
        "meta_mean_motion": 1.00270413,
        "meta_eccentricity": 0.0002407,
        "meta_inclination": 0.0099,
        "meta_ra_of_asc_node": 319.0014,
        "meta_arg_of_pericenter": 345.1188,
        "meta_mean_anomaly": 5.0458,
        "meta_ephemeris_type": 0,
        "meta_classification_type": "U",
        "meta_norad_cat_id": 54244,
        "meta_element_set_no": 999,
        "meta_rev_at_epoch": 1116,
        "meta_bstar": 0,
        "meta_mean_motion_dot": -1.53e-06,
        "meta_mean_motion_ddot": 0,
        "tle_line1": "1 54244U 22153B   25335.91425471 -.00000153  00000+0  00000+0 0  9991",
        "tle_line2": "2 54244   0.0099 319.0014 0002407 345.1188   5.0458  1.00270413 11169"
      },
      "geometry": {
        "type": "Point",
        "coordinates": [
          143.21967050143118,
          -0.004468331071302783
        ]
      }
    }
  ]
}